TIANMU-1 07             
1 57399U 23101A   26065.57454230  .00008352  00000+0  29795-3 0  9991
2 57399  97.2728 118.5929 0004609 142.4105 217.7458 15.29118809145964
STARLINK-31285          
1 59244U 24049P   26067.60574744 -.00002503  00000+0 -81423-4 0  9994
2 59244  42.9972 149.3678 0001892 158.6691 201.4240 15.27592029112237
